[{"OBJECT_NAME":"IRIDIUM 138","OBJECT_ID":"2017-083B","EPOCH":"2026-03-09T21:30:43.184160","MEAN_MOTION":14.34218949,"ECCENTRICITY":0.00023523,"INCLINATION":86.4035,"RA_OF_ASC_NODE":3.1874,"ARG_OF_PERICENTER":77.6293,"MEAN_ANOMALY":282.5166,"EPHEMERIS_TYPE":0,"CLASSIFICATION_TYPE":"U","NORAD_CAT_ID":43071,"ELEMENT_SET_NO":999,"REV_AT_EPOCH":42990,"BSTAR":0.00011242147,"MEAN_MOTION_DOT":3.35e-6,"MEAN_MOTION_DDOT":0},{"OBJECT_NAME":"CZ-6A DEB","OBJECT_ID":"2024-140CG","EPOCH":"2026-03-09T16:42:46.575360","MEAN_MOTION":14.38169128,"ECCENTRICITY":0.00494924,"INCLINATION":89.3038,"RA_OF_ASC_NODE":305.2054,"ARG_OF_PERICENTER":215.7869,"MEAN_ANOMALY":144.0012,"EPHEMERIS_TYPE":0,"CLASSIFICATION_TYPE":"U","NORAD_CAT_ID":60679,"ELEMENT_SET_NO":999,"REV_AT_EPOCH":8293,"BSTAR":0.00045857593,"MEAN_MOTION_DOT":1.424e-5,"MEAN_MOTION_DDOT":0}]
